[{"OBJECT_NAME":"STARLINK-30069","OBJECT_ID":"2023-079M","EPOCH":"2026-03-08T11:34:15.947328","MEAN_MOTION":15.26726881,"ECCENTRICITY":4.69e-5,"INCLINATION":42.9986,"RA_OF_ASC_NODE":110.4464,"ARG_OF_PERICENTER":272.6695,"MEAN_ANOMALY":87.4103,"EPHEMERIS_TYPE":0,"CLASSIFICATION_TYPE":"U","NORAD_CAT_ID":56834,"ELEMENT_SET_NO":999,"REV_AT_EPOCH":15274,"BSTAR":-8.0472e-5,"MEAN_MOTION_DOT":-2.416e-5,"MEAN_MOTION_DDOT":0},{"OBJECT_NAME":"STARLINK-36428","OBJECT_ID":"2026-003AE","EPOCH":"2026-03-09T11:36:42.569856","MEAN_MOTION":15.27610726,"ECCENTRICITY":0.00012272,"INCLINATION":43.0027,"RA_OF_ASC_NODE":228.1124,"ARG_OF_PERICENTER":240.5697,"MEAN_ANOMALY":119.5033,"EPHEMERIS_TYPE":0,"CLASSIFICATION_TYPE":"U","NORAD_CAT_ID":67362,"ELEMENT_SET_NO":999,"REV_AT_EPOCH":879,"BSTAR":0.001354714,"MEAN_MOTION_DOT":0.0003724,"MEAN_MOTION_DDOT":0}]
